[{"OBJECT_NAME":"VIZARD-METEO (RS38S)","OBJECT_ID":"2023-091Z","EPOCH":"2026-03-09T23:01:09.168960","MEAN_MOTION":15.32764799,"ECCENTRICITY":0.00087615,"INCLINATION":97.5192,"RA_OF_ASC_NODE":136.6522,"ARG_OF_PERICENTER":71.7666,"MEAN_ANOMALY":288.4529,"EPHEMERIS_TYPE":0,"CLASSIFICATION_TYPE":"U","NORAD_CAT_ID":57189,"ELEMENT_SET_NO":999,"REV_AT_EPOCH":14947,"BSTAR":0.00066106249,"MEAN_MOTION_DOT":0.00020895,"MEAN_MOTION_DDOT":0},{"OBJECT_NAME":"STARLINK-35855","OBJECT_ID":"2025-283P","EPOCH":"2026-03-09T03:49:49.630080","MEAN_MOTION":15.30184766,"ECCENTRICITY":7.796e-5,"INCLINATION":53.1612,"RA_OF_ASC_NODE":26.5806,"ARG_OF_PERICENTER":111.8454,"MEAN_ANOMALY":248.263,"EPHEMERIS_TYPE":0,"CLASSIFICATION_TYPE":"U","NORAD_CAT_ID":66891,"ELEMENT_SET_NO":999,"REV_AT_EPOCH":1576,"BSTAR":0.0010013905,"MEAN_MOTION_DOT":0.00029403,"MEAN_MOTION_DDOT":0}]
